IRIDIUM 921 [-]         
1 24873U 97034E   23322.22841995  .00010626  00000+0  38915-3 0  9992
2 24873  86.3889  31.9479 0004139   2.3050 357.8216 15.27879717442712
IRIDIUM 26 [-]          
1 24903U 97043A   23322.80855235  .00000379  00000+0  12351-3 0  9992
2 24903  86.3971 352.4587 0002157  98.2810 261.8632 14.36083254373996
IRIDIUM 22 [-]          
1 24907U 97043E   23322.84123522  .00000311  00000+0  10241-3 0  9999
2 24907  86.3978 355.5130 0002158  91.8409 268.3034 14.34989788374094
DUMMY MASS 1 [-]        
1 24925U 97048A   23322.69136951  .00000452  00000+0  48616-4 0  9991
2 24925  86.3378  41.6707 0008249  43.6810 316.5065 14.85929689419493
DUMMY MASS 2 [-]        
1 24926U 97048B   23322.69379866  .00000447  00000+0  48333-4 0  9996
2 24926  86.3377  43.1752 0009352  51.2989 308.9070 14.85690683419285
IRIDIUM 29 [-]          
1 24944U 97051A   23323.18987666  .00000322  00000+0  10525-3 0  9991
2 24944  86.3994  25.3257 0002075  87.2770 272.8664 14.35444721370834
IRIDIUM 33 [-]          
1 24946U 97051C   23322.88488258  .00000241  00000+0  79045-4 0  9995
2 24946  86.3907  24.7248 0009032 146.3871 213.7900 14.34178679370126
IRIDIUM 28 [-]          
1 24948U 97051E   23322.63614115  .00000395  00000+0  12810-3 0  9999
2 24948  86.3998  23.4056 0002261 104.9527 255.1920 14.36389735371050
